STARLINK-6144           
1 56894U 23083U   26063.17746029  .00002356  00000+0  18944-3 0  9995
2 56894  43.0027 111.5181 0001421 280.5247  79.5435 15.02539544150966
STARLINK-6208           
1 56895U 23083V   26063.17412053  .00000148  00000+0  26049-4 0  9996
2 56895  43.0026 111.4934 0001592 267.0625  93.0035 15.02532971150841
STARLINK-6202           
1 56896U 23083W   26063.16967652  .00000610  00000+0  60190-4 0  9995
2 56896  43.0042 111.4590 0001099 254.5583 105.5138 15.02534737150951
STARLINK-6200           
1 56897U 23083X   26063.17300879  .00000087  00000+0  21513-4 0  9993
2 56897  43.0029 111.4800 0001222 267.3434  92.7268 15.02535103150966
STARLINK-6205           
1 56898U 23083Y   26063.16670139  .00044707  00000+0  28737-2 0  9992
2 56898  42.9996 111.2944 0001694 277.0483 141.3777 15.07731204  5814
STARLINK-6203           
1 56899U 23083Z   26063.16670139  .01352753  00000+0  80543-1 0  9999
2 56899  43.0003 111.3671 0002006 267.6655 121.3354 15.07466349  5812
STARLINK-6207           
1 56900U 23083AA  26063.16672336  .00000105  00000+0  22855-4 0  9998
2 56900  43.0018  99.2996 0001218 267.6083  92.4620 15.02533998150954
STARLINK-6185           
1 56901U 23083AB  26063.16670139  .00075540  00000+0  48027-2 0  9990
2 56901  42.9993 111.2679 0001855 290.7443 140.6327 15.07901955  5611
STARLINK-6195           
1 56902U 23083AC  26063.09691072 -.00000624  00000+0 -31094-4 0  9993
2 56902  43.0009  99.6352 0001807 286.6925  73.3718 15.02536682151080
STARLINK-6192           
1 56903U 23083AD  26063.16670139  .00876765  00000+0  55573-1 0  9993
2 56903  43.0002 111.3795 0001320 265.1271 118.3097 15.05471005  5722
STARLINK-6193           
1 56904U 23083AE  26063.14008532  .00000144  00000+0  25730-4 0  9999
2 56904  43.0039  99.0968 0001662 277.1383  82.9270 15.02536527150989
STARLINK-6183           
1 56905U 23083AF  26063.09319834  .00034813  00000+0  25586-2 0  9991
2 56905  43.0024  99.6098 0001232 300.5161  59.5559 15.02841207150975
STARLINK-6098           
1 56906U 23083AG  26062.15956920 -.00003657  00000+0 -25574-3 0  9993
2 56906  43.0036 104.6423 0001790 271.6008  88.4629 15.02536377150838
STARLINK-6110           
1 56907U 23083AH  26063.16670139  .00036289  00000+0  25251-2 0  9997
2 56907  43.0003  99.1683 0001907 275.3306 139.4885 15.04877934  5672
STARLINK-6186           
1 56908U 23083AJ  26063.14674771  .00000347  00000+0  40739-4 0  9998
2 56908  43.0030  99.1475 0001669 278.3900  81.6753 15.02532399150988
STARLINK-5999           
1 56909U 23083AK  26063.16117669  .00000077  00000+0  20797-4 0  9991
2 56909  43.0017  99.2563 0001330 270.9131  89.1559 15.02531875151090
STARLINK-6179           
1 56910U 23083AL  26063.14119791 -.00000189  00000+0  10721-5 0  9991
2 56910  43.0040  99.1062 0001611 274.9048  85.1611 15.02533710150986
