[{"OBJECT_NAME":"STARLINK-6144","OBJECT_ID":"2023-083U","EPOCH":"2026-03-04T04:15:32.569056","MEAN_MOTION":15.02539544,"ECCENTRICITY":0.0001421,"INCLINATION":43.0027,"RA_OF_ASC_NODE":111.5181,"ARG_OF_PERICENTER":280.5247,"MEAN_ANOMALY":79.5435,"EPHEMERIS_TYPE":0,"CLASSIFICATION_TYPE":"U","NORAD_CAT_ID":56894,"ELEMENT_SET_NO":999,"REV_AT_EPOCH":15096,"BSTAR":0.00018944,"MEAN_MOTION_DOT":2.356e-5,"MEAN_MOTION_DDOT":0},{"OBJECT_NAME":"STARLINK-6208","OBJECT_ID":"2023-083V","EPOCH":"2026-03-04T04:10:44.013792","MEAN_MOTION":15.02532971,"ECCENTRICITY":0.0001592,"INCLINATION":43.0026,"RA_OF_ASC_NODE":111.4934,"ARG_OF_PERICENTER":267.0625,"MEAN_ANOMALY":93.0035,"EPHEMERIS_TYPE":0,"CLASSIFICATION_TYPE":"U","NORAD_CAT_ID":56895,"ELEMENT_SET_NO":999,"REV_AT_EPOCH":15084,"BSTAR":2.6049e-5,"MEAN_MOTION_DOT":1.48e-6,"MEAN_MOTION_DDOT":0},{"OBJECT_NAME":"STARLINK-6202","OBJECT_ID":"2023-083W","EPOCH":"2026-03-04T04:04:20.051328","MEAN_MOTION":15.02534737,"ECCENTRICITY":0.0001099,"INCLINATION":43.0042,"RA_OF_ASC_NODE":111.459,"ARG_OF_PERICENTER":254.5583,"MEAN_ANOMALY":105.5138,"EPHEMERIS_TYPE":0,"CLASSIFICATION_TYPE":"U","NORAD_CAT_ID":56896,"ELEMENT_SET_NO":999,"REV_AT_EPOCH":15095,"BSTAR":6.019e-5,"MEAN_MOTION_DOT":6.1e-6,"MEAN_MOTION_DDOT":0},{"OBJECT_NAME":"STARLINK-6200","OBJECT_ID":"2023-083X","EPOCH":"2026-03-04T04:09:07.959456","MEAN_MOTION":15.02535103,"ECCENTRICITY":0.0001222,"INCLINATION":43.0029,"RA_OF_ASC_NODE":111.48,"ARG_OF_PERICENTER":267.3434,"MEAN_ANOMALY":92.7268,"EPHEMERIS_TYPE":0,"CLASSIFICATION_TYPE":"U","NORAD_CAT_ID":56897,"ELEMENT_SET_NO":999,"REV_AT_EPOCH":15096,"BSTAR":2.1513e-5,"MEAN_MOTION_DOT":8.7e-7,"MEAN_MOTION_DDOT":0},{"OBJECT_NAME":"STARLINK-6205","OBJECT_ID":"2023-083Y","EPOCH":"2026-03-04T04:00:03.000096","MEAN_MOTION":15.07731204,"ECCENTRICITY":0.0001694,"INCLINATION":42.9996,"RA_OF_ASC_NODE":111.2944,"ARG_OF_PERICENTER":277.0483,"MEAN_ANOMALY":141.3777,"EPHEMERIS_TYPE":0,"CLASSIFICATION_TYPE":"U","NORAD_CAT_ID":56898,"ELEMENT_SET_NO":999,"REV_AT_EPOCH":581,"BSTAR":0.0028737,"MEAN_MOTION_DOT":0.00044707,"MEAN_MOTION_DDOT":0},{"OBJECT_NAME":"STARLINK-6203","OBJECT_ID":"2023-083Z","EPOCH":"2026-03-04T04:00:03.000096","MEAN_MOTION":15.07466349,"ECCENTRICITY":0.0002006,"INCLINATION":43.0003,"RA_OF_ASC_NODE":111.3671,"ARG_OF_PERICENTER":267.6655,"MEAN_ANOMALY":121.3354,"EPHEMERIS_TYPE":0,"CLASSIFICATION_TYPE":"U","NORAD_CAT_ID":56899,"ELEMENT_SET_NO":999,"REV_AT_EPOCH":581,"BSTAR":0.080543,"MEAN_MOTION_DOT":0.01352753,"MEAN_MOTION_DDOT":0},{"OBJECT_NAME":"STARLINK-6207","OBJECT_ID":"2023-083AA","EPOCH":"2026-03-04T04:00:04.898304","MEAN_MOTION":15.02533998,"ECCENTRICITY":0.0001218,"INCLINATION":43.0018,"RA_OF_ASC_NODE":99.2996,"ARG_OF_PERICENTER":267.6083,"MEAN_ANOMALY":92.462,"EPHEMERIS_TYPE":0,"CLASSIFICATION_TYPE":"U","NORAD_CAT_ID":56900,"ELEMENT_SET_NO":999,"REV_AT_EPOCH":15095,"BSTAR":2.2855e-5,"MEAN_MOTION_DOT":1.05e-6,"MEAN_MOTION_DDOT":0},{"OBJECT_NAME":"STARLINK-6185","OBJECT_ID":"2023-083AB","EPOCH":"2026-03-04T04:00:03.000096","MEAN_MOTION":15.07901955,"ECCENTRICITY":0.0001855,"INCLINATION":42.9993,"RA_OF_ASC_NODE":111.2679,"ARG_OF_PERICENTER":290.7443,"MEAN_ANOMALY":140.6327,"EPHEMERIS_TYPE":0,"CLASSIFICATION_TYPE":"U","NORAD_CAT_ID":56901,"ELEMENT_SET_NO":999,"REV_AT_EPOCH":561,"BSTAR":0.0048027,"MEAN_MOTION_DOT":0.0007554,"MEAN_MOTION_DDOT":0},{"OBJECT_NAME":"STARLINK-6195","OBJECT_ID":"2023-083AC","EPOCH":"2026-03-04T02:19:33.086208","MEAN_MOTION":15.02536682,"ECCENTRICITY":0.0001807,"INCLINATION":43.0009,"RA_OF_ASC_NODE":99.6352,"ARG_OF_PERICENTER":286.6925,"MEAN_ANOMALY":73.3718,"EPHEMERIS_TYPE":0,"CLASSIFICATION_TYPE":"U","NORAD_CAT_ID":56902,"ELEMENT_SET_NO":999,"REV_AT_EPOCH":15108,"BSTAR":-3.1094e-5,"MEAN_MOTION_DOT":-6.24e-6,"MEAN_MOTION_DDOT":0},{"OBJECT_NAME":"STARLINK-6192","OBJECT_ID":"2023-083AD","EPOCH":"2026-03-04T04:00:03.000096","MEAN_MOTION":15.05471005,"ECCENTRICITY":0.000132,"INCLINATION":43.0002,"RA_OF_ASC_NODE":111.3795,"ARG_OF_PERICENTER":265.1271,"MEAN_ANOMALY":118.3097,"EPHEMERIS_TYPE":0,"CLASSIFICATION_TYPE":"U","NORAD_CAT_ID":56903,"ELEMENT_SET_NO":999,"REV_AT_EPOCH":572,"BSTAR":0.055573,"MEAN_MOTION_DOT":0.00876765,"MEAN_MOTION_DDOT":0},{"OBJECT_NAME":"STARLINK-6193","OBJECT_ID":"2023-083AE","EPOCH":"2026-03-04T03:21:43.371648","MEAN_MOTION":15.02536527,"ECCENTRICITY":0.0001662,"INCLINATION":43.0039,"RA_OF_ASC_NODE":99.0968,"ARG_OF_PERICENTER":277.1383,"MEAN_ANOMALY":82.927,"EPHEMERIS_TYPE":0,"CLASSIFICATION_TYPE":"U","NORAD_CAT_ID":56904,"ELEMENT_SET_NO":999,"REV_AT_EPOCH":15098,"BSTAR":2.573e-5,"MEAN_MOTION_DOT":1.44e-6,"MEAN_MOTION_DDOT":0},{"OBJECT_NAME":"STARLINK-6183","OBJECT_ID":"2023-083AF","EPOCH":"2026-03-04T02:14:12.336576","MEAN_MOTION":15.02841207,"ECCENTRICITY":0.0001232,"INCLINATION":43.0024,"RA_OF_ASC_NODE":99.6098,"ARG_OF_PERICENTER":300.5161,"MEAN_ANOMALY":59.5559,"EPHEMERIS_TYPE":0,"CLASSIFICATION_TYPE":"U","NORAD_CAT_ID":56905,"ELEMENT_SET_NO":999,"REV_AT_EPOCH":15097,"BSTAR":0.0025586,"MEAN_MOTION_DOT":0.00034813,"MEAN_MOTION_DDOT":0},{"OBJECT_NAME":"STARLINK-6098","OBJECT_ID":"2023-083AG","EPOCH":"2026-03-03T03:49:46.778880","MEAN_MOTION":15.02536377,"ECCENTRICITY":0.00017906,"INCLINATION":43.0036,"RA_OF_ASC_NODE":104.6423,"ARG_OF_PERICENTER":271.6008,"MEAN_ANOMALY":88.4629,"EPHEMERIS_TYPE":0,"CLASSIFICATION_TYPE":"U","NORAD_CAT_ID":56906,"ELEMENT_SET_NO":999,"REV_AT_EPOCH":15083,"BSTAR":-0.00025574112,"MEAN_MOTION_DOT":-3.657e-5,"MEAN_MOTION_DDOT":0},{"OBJECT_NAME":"STARLINK-6110","OBJECT_ID":"2023-083AH","EPOCH":"2026-03-04T04:00:03.000096","MEAN_MOTION":15.04877934,"ECCENTRICITY":0.0001907,"INCLINATION":43.0003,"RA_OF_ASC_NODE":99.1683,"ARG_OF_PERICENTER":275.3306,"MEAN_ANOMALY":139.4885,"EPHEMERIS_TYPE":0,"CLASSIFICATION_TYPE":"U","NORAD_CAT_ID":56907,"ELEMENT_SET_NO":999,"REV_AT_EPOCH":567,"BSTAR":0.0025251,"MEAN_MOTION_DOT":0.00036289,"MEAN_MOTION_DDOT":0},{"OBJECT_NAME":"STARLINK-6186","OBJECT_ID":"2023-083AJ","EPOCH":"2026-03-04T03:31:19.002144","MEAN_MOTION":15.02532399,"ECCENTRICITY":0.0001669,"INCLINATION":43.003,"RA_OF_ASC_NODE":99.1475,"ARG_OF_PERICENTER":278.39,"MEAN_ANOMALY":81.6753,"EPHEMERIS_TYPE":0,"CLASSIFICATION_TYPE":"U","NORAD_CAT_ID":56908,"ELEMENT_SET_NO":999,"REV_AT_EPOCH":15098,"BSTAR":4.0739e-5,"MEAN_MOTION_DOT":3.47e-6,"MEAN_MOTION_DDOT":0},{"OBJECT_NAME":"STARLINK-5999","OBJECT_ID":"2023-083AK","EPOCH":"2026-03-04T03:52:05.666016","MEAN_MOTION":15.02531875,"ECCENTRICITY":0.000133,"INCLINATION":43.0017,"RA_OF_ASC_NODE":99.2563,"ARG_OF_PERICENTER":270.9131,"MEAN_ANOMALY":89.1559,"EPHEMERIS_TYPE":0,"CLASSIFICATION_TYPE":"U","NORAD_CAT_ID":56909,"ELEMENT_SET_NO":999,"REV_AT_EPOCH":15109,"BSTAR":2.0797e-5,"MEAN_MOTION_DOT":7.7e-7,"MEAN_MOTION_DDOT":0},{"OBJECT_NAME":"STARLINK-6179","OBJECT_ID":"2023-083AL","EPOCH":"2026-03-04T03:23:19.499424","MEAN_MOTION":15.0253371,"ECCENTRICITY":0.0001611,"INCLINATION":43.004,"RA_OF_ASC_NODE":99.1062,"ARG_OF_PERICENTER":274.9048,"MEAN_ANOMALY":85.1611,"EPHEMERIS_TYPE":0,"CLASSIFICATION_TYPE":"U","NORAD_CAT_ID":56910,"ELEMENT_SET_NO":999,"REV_AT_EPOCH":15098,"BSTAR":1.0721e-6,"MEAN_MOTION_DOT":-1.89e-6,"MEAN_MOTION_DDOT":0}]
